start=new Date('2023-03-24T00:00:00.000Z').valueOf();
sats=[{"RCS_SIZE":"LARGE","MEAN_MOTION_DOT":"0.00005207","EPHEMERIS_TYPE":"0","CENTER_NAME":"EARTH","REV_AT_EPOCH":"2347","SEMIMAJOR_AXIS":"6917.855","TLE_LINE1":"1 54059U 22136J   23082.52809122  .00005207  00000-0  34493-3 0  9991","MEAN_MOTION":"15.08848234","CLASSIFICATION_TYPE":"U","OBJECT_NAME":"STARLINK-5173","BSTAR":"0.00034493000000","DECAY_DATE":null,"PERIOD":"95.437","TIME_SYSTEM":"UTC","OBJECT_TYPE":"PAYLOAD","TLE_LINE2":"2 54059  53.2167 162.1826 0001296 101.4703 258.6434 15.08848234 23470","ECCENTRICITY":"0.00012960","EPOCH":"2023-03-23T12:40:27.081408","REF_FRAME":"TEME","COUNTRY_CODE":"US","MEAN_ANOMALY":"258.6434","MEAN_ELEMENT_THEORY":"SGP4","RA_OF_ASC_NODE":"162.1826","NORAD_CAT_ID":"54059","SITE":"AFETR","OBJECT_ID":"2022-136J","FILE":"3868494","APOAPSIS":"540.617","MEAN_MOTION_DDOT":"0.0000000000000","INCLINATION":"53.2167","ELEMENT_SET_NO":"999","ARG_OF_PERICENTER":"101.4703","PERIAPSIS":"538.824","GP_ID":"228708351","LAUNCH_DATE":"2022-10-20"},{"MEAN_MOTION":"15.08863020","CLASSIFICATION_TYPE":"U","DECAY_DATE":null,"BSTAR":"0.00087040000000","OBJECT_NAME":"STARLINK-5169","TIME_SYSTEM":"UTC","PERIOD":"95.436","MEAN_MOTION_DOT":"0.00013600","EPHEMERIS_TYPE":"0","RCS_SIZE":"LARGE","CENTER_NAME":"EARTH","REV_AT_EPOCH":"2393","SEMIMAJOR_AXIS":"6917.810","TLE_LINE1":"1 54060U 22136K   23082.82625942  .00013600  00000-0  87040-3 0  9994","RA_OF_ASC_NODE":"131.2298","NORAD_CAT_ID":"54060","INCLINATION":"53.2171","MEAN_MOTION_DDOT":"0.0000000000000","OBJECT_ID":"2022-136K","FILE":"3868816","APOAPSIS":"540.643","SITE":"AFETR","GP_ID":"228743159","PERIAPSIS":"538.707","ARG_OF_PERICENTER":"84.5233","ELEMENT_SET_NO":"999","LAUNCH_DATE":"2022-10-20","TLE_LINE2":"2 54060  53.2171 131.2298 0001399  84.5233 275.5919 15.08863020 23937","OBJECT_TYPE":"PAYLOAD","ECCENTRICITY":"0.00013990","REF_FRAME":"TEME","EPOCH":"2023-03-23T19:49:48.813888","MEAN_ELEMENT_THEORY":"SGP4","MEAN_ANOMALY":"275.5919","COUNTRY_CODE":"US"},{"REV_AT_EPOCH":"2401","SEMIMAJOR_AXIS":"6917.842","TLE_LINE1":"1 54061U 22136L   23082.83215306  .00000176  00000-0  29140-4 0  9997","MEAN_MOTION_DOT":"0.00000176","EPHEMERIS_TYPE":"0","RCS_SIZE":"LARGE","CENTER_NAME":"EARTH","BSTAR":"0.00002914000000","OBJECT_NAME":"STARLINK-5209","DECAY_DATE":null,"TIME_SYSTEM":"UTC","PERIOD":"95.437","MEAN_MOTION":"15.08852667","CLASSIFICATION_TYPE":"U","EPOCH":"2023-03-23T19:58:18.024384","REF_FRAME":"TEME","MEAN_ELEMENT_THEORY":"SGP4","MEAN_ANOMALY":"246.5520","COUNTRY_CODE":"US","OBJECT_TYPE":"PAYLOAD","TLE_LINE2":"2 54061  53.2187 125.5298 0001201 113.5598 246.5520 15.08852667 24011","ECCENTRICITY":"0.00012010","PERIAPSIS":"538.876","GP_ID":"228741429","ELEMENT_SET_NO":"999","ARG_OF_PERICENTER":"113.5598","LAUNCH_DATE":"2022-10-20","NORAD_CAT_ID":"54061","RA_OF_ASC_NODE":"125.5298","MEAN_MOTION_DDOT":"0.0000000000000","INCLINATION":"53.2187","SITE":"AFETR","APOAPSIS":"540.538","FILE":"3868816","OBJECT_ID":"2022-136L"},{"TLE_LINE1":"1 54062U 22136M   23082.91816899  .00023565  00000-0  14931-2 0  9998","SEMIMAJOR_AXIS":"6917.831","REV_AT_EPOCH":"2353","CENTER_NAME":"EARTH","MEAN_MOTION_DOT":"0.00023565","EPHEMERIS_TYPE":"0","RCS_SIZE":"LARGE","TIME_SYSTEM":"UTC","PERIOD":"95.437","DECAY_DATE":null,"OBJECT_NAME":"STARLINK-5170","BSTAR":"0.00149310000000","CLASSIFICATION_TYPE":"U","MEAN_MOTION":"15.08856300","MEAN_ELEMENT_THEORY":"SGP4","MEAN_ANOMALY":"288.3137","COUNTRY_CODE":"US","REF_FRAME":"TEME","EPOCH":"2023-03-23T22:02:09.800736","ECCENTRICITY":"0.00014640","TLE_LINE2":"2 54062  53.2167 160.3533 0001464  71.8015 288.3137 15.08856300 23532","OBJECT_TYPE":"PAYLOAD","LAUNCH_DATE":"2022-10-20","GP_ID":"228741679","PERIAPSIS":"538.683","ARG_OF_PERICENTER":"71.8015","ELEMENT_SET_NO":"999","INCLINATION":"53.2167","MEAN_MOTION_DDOT":"0.0000000000000","FILE":"3868816","OBJECT_ID":"2022-136M","APOAPSIS":"540.708","SITE":"AFETR","NORAD_CAT_ID":"54062","RA_OF_ASC_NODE":"160.3533"},{"RCS_SIZE":"LARGE","MEAN_MOTION_DOT":"0.00006833","EPHEMERIS_TYPE":"0","CENTER_NAME":"EARTH","REV_AT_EPOCH":"2353","SEMIMAJOR_AXIS":"6917.821","TLE_LINE1":"1 54063U 22136N   23082.91447481  .00006833  00000-0  44674-3 0  9993","MEAN_MOTION":"15.08859313","CLASSIFICATION_TYPE":"U","BSTAR":"0.00044674000000","OBJECT_NAME":"STARLINK-5225","DECAY_DATE":null,"PERIOD":"95.436","TIME_SYSTEM":"UTC","OBJECT_TYPE":"PAYLOAD","TLE_LINE2":"2 54063  53.2181 160.3342 0001311 112.6257 247.4874 15.08859313 23531","ECCENTRICITY":"0.00013110","EPOCH":"2023-03-23T21:56:50.623584","REF_FRAME":"TEME","COUNTRY_CODE":"US","MEAN_ANOMALY":"247.4874","MEAN_ELEMENT_THEORY":"SGP4","NORAD_CAT_ID":"54063","RA_OF_ASC_NODE":"160.3342","SITE":"AFETR","APOAPSIS":"540.593","FILE":"3868816","OBJECT_ID":"2022-136N","MEAN_MOTION_DDOT":"0.0000000000000","INCLINATION":"53.2181","ELEMENT_SET_NO":"999","ARG_OF_PERICENTER":"112.6257","PERIAPSIS":"538.779","GP_ID":"228742431","LAUNCH_DATE":"2022-10-20"},{"ECCENTRICITY":"0.00013900","TLE_LINE2":"2 54064  53.2174 117.6746 0001390  90.8363 269.2788 15.08849324 24087","OBJECT_TYPE":"PAYLOAD","MEAN_ANOMALY":"269.2788","MEAN_ELEMENT_THEORY":"SGP4","COUNTRY_CODE":"US","REF_FRAME":"TEME","EPOCH":"2023-03-23T08:51:56.618784","INCLINATION":"53.2174","MEAN_MOTION_DDOT":"0.0000000000000","APOAPSIS":"540.678","FILE":"3868494","OBJECT_ID":"2022-136P","SITE":"AFETR","NORAD_CAT_ID":"54064","RA_OF_ASC_NODE":"117.6746","LAUNCH_DATE":"2022-10-20","GP_ID":"228708102","PERIAPSIS":"538.755","ARG_OF_PERICENTER":"90.8363","ELEMENT_SET_NO":"999","CENTER_NAME":"EARTH","EPHEMERIS_TYPE":"0","MEAN_MOTION_DOT":"-0.00000383","RCS_SIZE":"LARGE","TLE_LINE1":"1 54064U 22136P   23082.36940531 -.00000383  00000-0 -59956-5 0  9994","SEMIMAJOR_AXIS":"6917.852","REV_AT_EPOCH":"2408","CLASSIFICATION_TYPE":"U","MEAN_MOTION":"15.08849324","TIME_SYSTEM":"UTC","PERIOD":"95.437","DECAY_DATE":null,"BSTAR":"-0.00000599560000","OBJECT_NAME":"STARLINK-5172"},{"ELEMENT_SET_NO":"999","ARG_OF_PERICENTER":"111.6023","PERIAPSIS":"538.658","GP_ID":"228741929","LAUNCH_DATE":"2022-10-20","NORAD_CAT_ID":"54065","RA_OF_ASC_NODE":"160.2873","SITE":"AFETR","FILE":"3868816","APOAPSIS":"540.661","OBJECT_ID":"2022-136Q","MEAN_MOTION_DDOT":"0.0000000000000","INCLINATION":"53.2168","EPOCH":"2023-03-23T21:46:14.061216","REF_FRAME":"TEME","COUNTRY_CODE":"US","MEAN_ANOMALY":"248.5124","MEAN_ELEMENT_THEORY":"SGP4","OBJECT_TYPE":"PAYLOAD","TLE_LINE2":"2 54065  53.2168 160.2873 0001448 111.6023 248.5124 15.08868157 23533","ECCENTRICITY":"0.00014480","BSTAR":"0.00091943000000","OBJECT_NAME":"STARLINK-5187","DECAY_DATE":null,"PERIOD":"95.436","TIME_SYSTEM":"UTC","MEAN_MOTION":"15.08868157","CLASSIFICATION_TYPE":"U","REV_AT_EPOCH":"2353","TLE_LINE1":"1 54065U 22136Q   23082.90710719  .00014386  00000-0  91943-3 0  9994","SEMIMAJOR_AXIS":"6917.794","RCS_SIZE":"LARGE","EPHEMERIS_TYPE":"0","MEAN_MOTION_DOT":"0.00014386","CENTER_NAME":"EARTH"},{"CLASSIFICATION_TYPE":"U","MEAN_MOTION":"15.08881965","PERIOD":"95.435","TIME_SYSTEM":"UTC","DECAY_DATE":null,"BSTAR":"0.00183660000000","OBJECT_NAME":"STARLINK-5151","CENTER_NAME":"EARTH","RCS_SIZE":"LARGE","EPHEMERIS_TYPE":"0","MEAN_MOTION_DOT":"0.00029096","TLE_LINE1":"1 54066U 22136R   23082.91079131  .00029096  00000-0  18366-2 0  9993","SEMIMAJOR_AXIS":"6917.752","REV_AT_EPOCH":"2353","FILE":"3868816","APOAPSIS":"540.493","OBJECT_ID":"2022-136R","SITE":"AFETR","INCLINATION":"53.2159","MEAN_MOTION_DDOT":"0.0000000000000","RA_OF_ASC_NODE":"160.3074","NORAD_CAT_ID":"54066","LAUNCH_DATE":"2022-10-20","ARG_OF_PERICENTER":"81.3934","ELEMENT_SET_NO":"999","GP_ID":"228742179","PERIAPSIS":"538.741","ECCENTRICITY":"0.00012660","TLE_LINE2":"2 54066  53.2159 160.3074 0001266  81.3934 278.7201 15.08881965 23533","OBJECT_TYPE":"PAYLOAD","COUNTRY_CODE":"US","MEAN_ANOMALY":"278.7201","MEAN_ELEMENT_THEORY":"SGP4","REF_FRAME":"TEME","EPOCH":"2023-03-23T21:51:32.369184"},{"NORAD_CAT_ID":"54067","RA_OF_ASC_NODE":"162.0243","APOAPSIS":"540.732","FILE":"3868763","OBJECT_ID":"2022-136S","SITE":"AFETR","INCLINATION":"53.2162","MEAN_MOTION_DDOT":"0.0000000000000","ARG_OF_PERICENTER":"84.3404","ELEMENT_SET_NO":"999","GP_ID":"228716514","PERIAPSIS":"538.768","LAUNCH_DATE":"2022-10-20","TLE_LINE2":"2 54067  53.2162 162.0243 0001420  84.3404 275.7750 15.08838472 23959","OBJECT_TYPE":"PAYLOAD","ECCENTRICITY":"0.00014200","REF_FRAME":"TEME","EPOCH":"2023-03-23T12:03:18.933408","COUNTRY_CODE":"US","MEAN_ANOMALY":"275.7750","MEAN_ELEMENT_THEORY":"SGP4","MEAN_MOTION":"15.08838472","CLASSIFICATION_TYPE":"U","DECAY_DATE":null,"OBJECT_NAME":"STARLINK-5174","BSTAR":"0.00000409750000","PERIOD":"95.438","TIME_SYSTEM":"UTC","RCS_SIZE":"LARGE","EPHEMERIS_TYPE":"0","MEAN_MOTION_DOT":"-0.00000223","CENTER_NAME":"EARTH","REV_AT_EPOCH":"2395","SEMIMAJOR_AXIS":"6917.885","TLE_LINE1":"1 54067U 22136S   23082.50230247 -.00000223  00000-0  40975-5 0  9992"},{"ECCENTRICITY":"0.00013050","TLE_LINE2":"2 54068  53.2170 160.2624 0001305 100.1313 259.9827 15.08868794 23533","OBJECT_TYPE":"PAYLOAD","MEAN_ELEMENT_THEORY":"SGP4","MEAN_ANOMALY":"259.9827","COUNTRY_CODE":"US","REF_FRAME":"TEME","EPOCH":"2023-03-23T21:40:55.915680","INCLINATION":"53.2170","MEAN_MOTION_DDOT":"0.0000000000000","FILE":"3868816","APOAPSIS":"540.560","OBJECT_ID":"2022-136T","SITE":"AFETR","RA_OF_ASC_NODE":"160.2624","NORAD_CAT_ID":"54068","LAUNCH_DATE":"2022-10-20","GP_ID":"228743160","PERIAPSIS":"538.755","ARG_OF_PERICENTER":"100.1313","ELEMENT_SET_NO":"999","CENTER_NAME":"EARTH","EPHEMERIS_TYPE":"0","MEAN_MOTION_DOT":"0.00020494","RCS_SIZE":"LARGE","TLE_LINE1":"1 54068U 22136T   23082.90342495  .00020494  00000-0  13010-2 0  9994","SEMIMAJOR_AXIS":"6917.792","REV_AT_EPOCH":"2353","CLASSIFICATION_TYPE":"U","MEAN_MOTION":"15.08868794","TIME_SYSTEM":"UTC","PERIOD":"95.436","DECAY_DATE":null,"OBJECT_NAME":"STARLINK-5222","BSTAR":"0.00130100000000"}];
